STARLINK-33683          
1 63573U 25076E   26068.08108751  .00028935  00000+0  10566-2 0  9992
2 63573  43.0035 325.4548 0002167 261.0365  99.0241 15.27589005 51734
2025-313BC              
1 67298U 25313BC  26068.18968176  .00075331  00000+0  26410-2 0  9997
2 67298  97.3985 144.8110 0008478 328.9209  31.1528 15.29126358  7890
